<?xml version="1.0" encoding="UTF-8"?>
<kml xmlns="http://www.opengis.net/kml/2.2" xmlns:gx="http://www.google.com/kml/ext/2.2" xmlns:kml="http://www.opengis.net/kml/2.2" xmlns:atom="http://www.w3.org/2005/Atom">
<Document>
	<name>Budapest Boundery.kml</name>
	<StyleMap id="msn_ylw-pushpin">
		<Pair>
			<key>normal</key>
			<styleUrl>#sn_ylw-pushpin</styleUrl>
		</Pair>
		<Pair>
			<key>highlight</key>
			<styleUrl>#sh_ylw-pushpin</styleUrl>
		</Pair>
	</StyleMap>
	<Style id="sh_ylw-pushpin">
		<IconStyle>
			<scale>1.3</scale>
			<Icon>
				<href>http://maps.google.com/mapfiles/kml/pushpin/ylw-pushpin.png</href>
			</Icon>
			<hotSpot x="20" y="2" xunits="pixels" yunits="pixels"/>
		</IconStyle>
		<LineStyle>
			<color>ff0000ff</color>
		</LineStyle>
		<PolyStyle>
			<fill>0</fill>
		</PolyStyle>
	</Style>
	<Style id="sn_ylw-pushpin">
		<IconStyle>
			<scale>1.1</scale>
			<Icon>
				<href>http://maps.google.com/mapfiles/kml/pushpin/ylw-pushpin.png</href>
			</Icon>
			<hotSpot x="20" y="2" xunits="pixels" yunits="pixels"/>
		</IconStyle>
		<LineStyle>
			<color>ff0000ff</color>
		</LineStyle>
		<PolyStyle>
			<fill>0</fill>
		</PolyStyle>
	</Style>
	<Folder>
		<name>Budapest Boundery</name>
		<open>1</open>
		<Placemark>
			<name>Boundery</name>
			<styleUrl>#msn_ylw-pushpin</styleUrl>
			<Polygon>
				<tessellate>1</tessellate>
				<outerBoundaryIs>
					<LinearRing>
						<coordinates>
							19.31069944579825,47.45639477886567,0 19.32081197411325,47.45862203127358,0 19.33033943611689,47.45969502637946,0 19.33445881687945,47.46318073898091,0 19.33070294341787,47.4669902644952,0 19.32966386056313,47.47847634774843,0 19.324014433466,47.48308471966062,0 19.31409594384076,47.49297095879245,0 19.31310631146627,47.50255520627109,0 19.3202262132015,47.50968494428116,0 19.317741490689,47.51499197640298,0 19.30912465521595,47.51385468345472,0 19.29339984404603,47.51059287212373,0 19.28264788037563,47.51160901615052,0 19.27077653492842,47.50849876864352,0 19.26425313197461,47.50865063965819,0 19.2583466125045,47.52006172109733,0 19.24563465953371,47.5371602760302,0 19.22100275408038,47.53262100267361,0 19.20968197744568,47.53980885163291,0 19.20357403003867,47.53749920054231,0 19.19881622458198,47.53961707922512,0 19.19520124050137,47.53757626224855,0 19.19148709976339,47.53939712055175,0 19.19037053181896,47.53882581195988,0 19.17727571002449,47.54603349336123,0 19.1805495753185,47.5482597285653,0 19.17500018117891,47.55035584003066,0 19.16130208722666,47.55900521915139,0 19.16287944684734,47.56081864428523,0 19.17426909338379,47.56407124028105,0 19.15747752970216,47.57598291532391,0 19.15162043978319,47.57366102903853,0 19.1451384097751,47.57788863307216,0 19.15373688612677,47.58482717996419,0 19.14739062935194,47.58911375844594,0 19.13830040892989,47.59552223913321,0 19.13999789263499,47.59620183208551,0 19.1378169010721,47.59957496297485,0 19.1360822537992,47.59899781110366,0 19.13000160461169,47.59797764256463,0 19.12772719526657,47.59772910339778,0 19.12361221834464,47.59934572521674,0 19.12027784735253,47.60178680175016,0 19.1174403641508,47.60314084026983,0 19.1084321503582,47.60557706874304,0 19.10696831097299,47.60703520444137,0 19.10875095598134,47.61034726144118,0 19.10583115737419,47.61137196880688,0 19.10310746502479,47.6114252234817,0 19.09903731849068,47.61298125177093,0 19.09634867278758,47.61056151775325,0 19.08758119657503,47.60286239628688,0 19.08170559387014,47.59623848651125,0 19.07719162003054,47.58977359805777,0 19.0750609387914,47.58758922712777,0 19.07368294207163,47.58536995746863,0 19.06839945956598,47.58678700415435,0 19.07090996704515,47.58898607470084,0 19.0712582681028,47.59057008853433,0 19.07091704751889,47.59316078104911,0 19.07123334938967,47.59570689026973,0 19.07199430448986,47.59899704222895,0 19.07250804029432,47.60106012657404,0 19.0731954691684,47.60237464130076,0 19.07503115994785,47.60508555264921,0 19.07665756691169,47.60674965513314,0 19.07475275389242,47.60758045179296,0 19.07269176663162,47.6074698706253,0 19.06974397409967,47.60797375535518,0 19.06664069556263,47.60855757114551,0 19.06633487441272,47.60833271831586,0 19.06046777680714,47.60920338451848,0 19.06004676642136,47.60946988827428,0 19.05345161337254,47.60901353071636,0 19.04661570381816,47.61011094229615,0 19.04514092044894,47.60988340220389,0 19.04095081470291,47.6098334947814,0 19.03805360262858,47.60951133408423,0 19.03727159561086,47.60881326787916,0 19.0266022348418,47.60515085664414,0 19.02575972020183,47.60493278833395,0 19.02525537354984,47.60426555590826,0 19.02982849739469,47.59953217278449,0 19.03007581707875,47.59860603223738,0 19.03282625363347,47.59215526552414,0 19.03252641016382,47.59162673038947,0 19.03319145662174,47.59127937146775,0 19.03437364901367,47.58715721522433,0 19.02587092641812,47.58824928465173,0 19.01966093226432,47.58753687289446,0 19.01373776155239,47.58665352203733,0 19.01037606411385,47.58566306061191,0 19.00914770964553,47.58550945138964,0 19.00203536768457,47.58346963345196,0 18.99973948694129,47.58335142170943,0 18.99905742024389,47.5844365233131,0 18.99709429584746,47.58571259853287,0 18.99400303634994,47.58415125138826,0 18.99031935893382,47.58508842647139,0 18.98338495550537,47.58837408320694,0 18.9776239001614,47.58514906224035,0 18.98437278091992,47.58321346884428,0 18.98367608450118,47.5822077022918,0 18.98379819129822,47.5808898190966,0 18.98265313976922,47.58015860554621,0 18.97823247640616,47.57640155235022,0 18.97697978014443,47.57480907560939,0 18.97760841862788,47.57309942555384,0 18.97674813113546,47.57285136854235,0 18.97559228937781,47.57332791533474,0 18.97341683677525,47.57438320732765,0 18.96800122123529,47.57602646844435,0 18.96713150088995,47.57591312597205,0 18.96592810670379,47.57623883621227,0 18.96450805474471,47.57605935407598,0 18.9600807405402,47.57679268196512,0 18.95725445292894,47.57700295686447,0 18.95646425899283,47.57762337956067,0 18.95487362031232,47.57778592646838,0 18.95270309254708,47.57725189432893,0 18.95194311282944,47.57752180351627,0 18.94942581024492,47.5774126887615,0 18.94782244031791,47.57765759640113,0 18.94719925916531,47.57786161223749,0 18.94327920359426,47.57863995960425,0 18.94179429079434,47.57707862862738,0 18.94056323804281,47.57611712188232,0 18.93837366582675,47.57504269204751,0 18.9347283454919,47.57381816618492,0 18.92943242811996,47.57184359765332,0 18.93183969682435,47.56781302058499,0 18.93293968729764,47.56633466718369,0 18.93671859229618,47.56014187180286,0 18.93814318053993,47.55714575375078,0 18.93365390200458,47.55587975362059,0 18.93453154446017,47.55525889853769,0 18.93473370662901,47.55514838008803,0 18.93549602204974,47.55459694544971,0 18.93678849850936,47.55425417520212,0 18.93755484642826,47.55392619190536,0 18.93839182999278,47.5531153652571,0 18.93873081551699,47.55298877199806,0 18.93969540192434,47.55277760272537,0 18.9400142974843,47.55294370036141,0 18.94046287006712,47.55276172703915,0 18.9409387697198,47.55200020451494,0 18.94050379250221,47.5515594811439,0 18.94084776783721,47.55070622232802,0 18.94019108536419,47.55027114875899,0 18.93672675517757,47.54842185678294,0 18.93345743091764,47.54632954683638,0 18.93260762073142,47.5459745342821,0 18.93228686136121,47.54613714776757,0 18.93182559687628,47.5458603545899,0 18.93165237219634,47.54597707362345,0 18.93122228182195,47.54577454858145,0 18.93090790331107,47.54583988910853,0 18.92995267869222,47.54545529064539,0 18.92903900326648,47.54478870067187,0 18.92825267618484,47.54436797883721,0 18.92749127685831,47.54378906640261,0 18.92696182037573,47.54396232033036,0 18.92621574763253,47.54356023563444,0 18.92638711753933,47.54286444145099,0 18.92764681052821,47.5422380505222,0 18.92820396554587,47.54218828968035,0 18.9288897343267,47.54186692735141,0 18.92991306700305,47.54186724898506,0 18.93136007200773,47.54247030613337,0 18.93219505657342,47.54287503712084,0 18.93309369433105,47.54268753424808,0 18.93406362841308,47.54309738067744,0 18.93512905652669,47.54335067601037,0 18.93608394979993,47.54324228806148,0 18.93562394449046,47.5387998876451,0 18.93399605119837,47.53496756079318,0 18.93445183767084,47.53290143000039,0 18.93373385331525,47.5315283558662,0 18.93446649887991,47.5303371461132,0 18.93490638320595,47.52737113213407,0 18.93526864480761,47.52262418273913,0 18.93335981718846,47.52312776112257,0 18.93277409057413,47.52373436713781,0 18.93103382934019,47.52443560334776,0 18.93038150486097,47.52452881873894,0 18.92902677109823,47.52410559512236,0 18.92761795183528,47.52432729936477,0 18.92681038607501,47.52227309994485,0 18.92926738886302,47.521809589086,0 18.93377348517782,47.52064211641821,0 18.93529612236673,47.52199722288164,0 18.94294160063657,47.5186975780689,0 18.94472704333158,47.51750231069477,0 18.94382680773883,47.51737469030197,0 18.94278491778346,47.51708011471189,0 18.94158525123304,47.51472390152878,0 18.93965223143877,47.51236754111655,0 18.93826910207517,47.51245544202165,0 18.93829195217148,47.51208607480511,0 18.93751209528708,47.51150792905701,0 18.93669993652563,47.51050209547461,0 18.93569436344403,47.50965081567193,0 18.93453821618526,47.50820929337075,0 18.93392533209278,47.50697335880032,0 18.93646219081444,47.50625237904453,0 18.94062378543746,47.50496411903147,0 18.9436593884527,47.50386002576904,0 18.94437120344735,47.50309329293515,0 18.94361704822993,47.50196740429124,0 18.94398850862348,47.50091684059797,0 18.94444911856087,47.500578935345,0 18.94507467448449,47.49965097116045,0 18.94547828105965,47.49927798504985,0 18.9453894448508,47.49866920786108,0 18.94453755606307,47.49827512114875,0 18.94487096574793,47.49763578608584,0 18.9447835785366,47.49681967580592,0 18.93985064251272,47.49777534020294,0 18.93605003108439,47.49138492255366,0 18.94175100644268,47.48844486738251,0 18.94156747376524,47.48696656044312,0 18.9471227774151,47.48237631549816,0 18.95239244017607,47.48434231742901,0 18.95504180615106,47.4862964335266,0 18.95816759647094,47.48508958396291,0 18.96359254970887,47.48230559189438,0 18.96715382590535,47.47982720021662,0 18.97030236883343,47.47597966316216,0 18.97878681917622,47.46897020873135,0 18.98256043522526,47.46083909197588,0 18.98124549037729,47.45526948508828,0 18.97684222318197,47.45526717724777,0 18.9765388739957,47.45446176642545,0 18.96999198860851,47.45109160407631,0 18.97112833165692,47.4500413826469,0 18.97714257601246,47.44730368680301,0 18.97831483716725,47.44719201196149,0 18.97856844524222,47.44684586029943,0 18.97806264472188,47.44547035037949,0 18.97881364731297,47.44310998582616,0 18.97943790561213,47.4409162793225,0 18.97935909414493,47.43811065958965,0 18.97870528065597,47.43701922316442,0 18.97841092430847,47.43514757298356,0 18.97772801338775,47.43250699913552,0 18.97632733131141,47.42995682888717,0 18.97418311940039,47.42950074966436,0 18.96807393098052,47.42577150639363,0 18.95711344516531,47.4184185836912,0 18.95705570189381,47.41429026626145,0 18.961641575455,47.40437847885386,0 18.96243933928132,47.39924351372542,0 18.95381051028016,47.39672911374225,0 18.95197169772725,47.39482478242115,0 18.95139284143567,47.39190389055645,0 18.95302898152057,47.38698070654548,0 18.95495187246042,47.38373632418863,0 18.95377993239248,47.3833986755756,0 18.95366546707539,47.38267445850809,0 18.95473377429068,47.38114320673951,0 18.95583810281375,47.37736907584301,0 18.95711915386375,47.3758695544934,0 18.96242218707324,47.37260107022419,0 18.96702667320954,47.37567054206155,0 18.96983330981129,47.37850305569427,0 18.97420082122545,47.3811797506136,0 18.98045237431231,47.3840989821412,0 18.98380155522761,47.38416293911067,0 18.98812364333389,47.38549361237479,0 18.99158359981917,47.38598669103133,0 18.99420591868877,47.38659349913686,0 19.00942951310084,47.38865622087137,0 19.01305564250474,47.38966403351338,0 19.01540046271208,47.39078359761277,0 19.0192501463424,47.38807637512633,0 19.02269137389237,47.38900768494793,0 19.0242649469076,47.38715033067755,0 19.02771164860683,47.38840970267802,0 19.03019788677468,47.3852528260634,0 19.03819869105038,47.38816954875647,0 19.03988561979451,47.38719575453656,0 19.04156003515661,47.38550109184578,0 19.04254223335105,47.38577817619081,0 19.04395014798033,47.3849269573263,0 19.04524734136881,47.38665634765659,0 19.04643452029998,47.3871557677783,0 19.04785888078539,47.38864666713227,0 19.05123411054336,47.38740901881018,0 19.05399482818345,47.39329154001857,0 19.06226776900798,47.3914800235422,0 19.0645170949376,47.39342525140997,0 19.06064256260135,47.39775151023445,0 19.06737926869874,47.40066431530605,0 19.07086287091213,47.40260763168509,0 19.07380876636513,47.40322752329323,0 19.07522321504142,47.40395209371236,0 19.08341925052362,47.40488610687262,0 19.08569838505544,47.40097047159662,0 19.0940972458819,47.39068795617993,0 19.10040089284629,47.3890552106719,0 19.10507459600204,47.38708881248169,0 19.0973536288175,47.37875414501523,0 19.13357885828539,47.35620325513677,0 19.14061551844706,47.34969069008478,0 19.15027398387125,47.35639743606477,0 19.180045068253,47.36087992350856,0 19.19301007126808,47.37470302798226,0 19.20581170854272,47.39558986887872,0 19.21397848141966,47.40013594412749,0 19.21556760168477,47.40318332886262,0 19.21815046445312,47.40078817172103,0 19.22639756972272,47.40707580842267,0 19.21720364285633,47.41255003565001,0 19.22830896351144,47.42148502865155,0 19.23269954611973,47.42389713872733,0 19.2478802677265,47.41956400341081,0 19.25452285889386,47.42871709128139,0 19.25976391254257,47.42688256490496,0 19.26430215681793,47.43786654618065,0 19.28033698995649,47.43595572696906,0 19.29136225717674,47.44973389331996,0 19.30135284700022,47.45674319642937,0 19.31069944579825,47.45639477886567,0 
						</coordinates>
					</LinearRing>
				</outerBoundaryIs>
			</Polygon>
		</Placemark>
		<atom:link rel="app" href="https://www.google.com/earth/about/versions/#earth-pro" title="Google Earth Pro 7.3.7.1155"></atom:link>
	</Folder>
</Document>
</kml>
